{"type": "FeatureCollection", "features": [ {"type": "Feature", "properties": {"norad_id": 64901, "name": "CO3D 4", "group": "resource", "lat": -16.1130476337743, "lon": 55.05297004785848, "alt_km": 510.3980644833291, "timestamp": "2025-12-02T08:59:32.377681+00:00", "meta": {"OBJECT_NAME": "CO3D 4", "OBJECT_ID": "2025-156C", "EPOCH": "2025-12-01T18:50:45.474720", "MEAN_MOTION": 15.20204195, "ECCENTRICITY": 0.0001211, "INCLINATION": 97.4354, "RA_OF_ASC_NODE": 52.3098, "ARG_OF_PERICENTER": 238.3057, "MEAN_ANOMALY": 121.806, "EPHEMERIS_TYPE": 0, "CLASSIFICATION_TYPE": "U", "NORAD_CAT_ID": 64901, "ELEMENT_SET_NO": 999, "REV_AT_EPOCH": 1954, "BSTAR": -1.4421e-05, "MEAN_MOTION_DOT": -3.8e-06, "MEAN_MOTION_DDOT": 0}, "tle": {"line1": "1 64901U 25156C   25335.78524855 -.00000380  00000+0 -14421-4 0  9999", "line2": "2 64901  97.4354  52.3098 0001211 238.3057 121.8060 15.20204195 19540"}}, "geometry": {"type": "Point", "coordinates": [55.05297004785848, -16.1130476337743]}}, {"type": "Feature", "properties": {"norad_id": 64902, "name": "CO3D 2", "group": "resource", "lat": 13.498374155650412, "lon": -125.41408980829726, "alt_km": 505.9017965916719, "timestamp": "2025-12-02T08:59:32.377690+00:00", "meta": {"OBJECT_NAME": "CO3D 2", "OBJECT_ID": "2025-156D", "EPOCH": "2025-12-01T19:37:31.764000", "MEAN_MOTION": 15.20212258, "ECCENTRICITY": 9.93e-05, "INCLINATION": 97.4353, "RA_OF_ASC_NODE": 52.2404, "ARG_OF_PERICENTER": 118.7701, "MEAN_ANOMALY": 241.3634, "EPHEMERIS_TYPE": 0, "CLASSIFICATION_TYPE": "U", "NORAD_CAT_ID": 64902, "ELEMENT_SET_NO": 999, "REV_AT_EPOCH": 1954, "BSTAR": 0.00031387, "MEAN_MOTION_DOT": 6.735e-05, "MEAN_MOTION_DDOT": 0}, "tle": {"line1": "1 64902U 25156D   25335.81772875  .00006735  00000+0  31387-3 0  9998", "line2": "2 64902  97.4353  52.2404 0000993 118.7701 241.3634 15.20212258 19547"}}, "geometry": {"type": "Point", "coordinates": [-125.41408980829726, 13.498374155650412]}}, {"type": "Feature", "properties": {"norad_id": 64903, "name": "CO3D 1", "group": "resource", "lat": 14.377018064088757, "lon": -125.29223064260124, "alt_km": 505.8393972257727, "timestamp": "2025-12-02T08:59:32.377700+00:00", "meta": {"OBJECT_NAME": "CO3D 1", "OBJECT_ID": "2025-156E", "EPOCH": "2025-12-01T21:12:32.372064", "MEAN_MOTION": 15.20195514, "ECCENTRICITY": 9.98e-05, "INCLINATION": 97.4354, "RA_OF_ASC_NODE": 52.3054, "ARG_OF_PERICENTER": 114.4338, "MEAN_ANOMALY": 245.7002, "EPHEMERIS_TYPE": 0, "CLASSIFICATION_TYPE": "U", "NORAD_CAT_ID": 64903, "ELEMENT_SET_NO": 999, "REV_AT_EPOCH": 1955, "BSTAR": 0.00045831, "MEAN_MOTION_DOT": 9.865e-05, "MEAN_MOTION_DDOT": 0}, "tle": {"line1": "1 64903U 25156E   25335.88370801  .00009865  00000+0  45831-3 0  9995", "line2": "2 64903  97.4354  52.3054 0000998 114.4338 245.7002 15.20195514 19558"}}, "geometry": {"type": "Point", "coordinates": [-125.29223064260124, 14.377018064088757]}}, {"type": "Feature", "properties": {"norad_id": 66514, "name": "SENTINEL-6B", "group": "resource", "lat": 63.03141910935149, "lon": -115.01014650026401, "alt_km": 1319.6052072372368, "timestamp": "2025-12-02T08:59:32.377710+00:00", "meta": {"OBJECT_NAME": "SENTINEL-6B", "OBJECT_ID": "2025-264A", "EPOCH": "2025-12-02T01:07:30.457056", "MEAN_MOTION": 12.85877319, "ECCENTRICITY": 0.0011528, "INCLINATION": 66.0388, "RA_OF_ASC_NODE": 184.7629, "ARG_OF_PERICENTER": 268.8495, "MEAN_ANOMALY": 91.1202, "EPHEMERIS_TYPE": 0, "CLASSIFICATION_TYPE": "U", "NORAD_CAT_ID": 66514, "ELEMENT_SET_NO": 999, "REV_AT_EPOCH": 191, "BSTAR": 0.00032638, "MEAN_MOTION_DOT": 1.9e-07, "MEAN_MOTION_DDOT": 0}, "tle": {"line1": "1 66514U 25264A   25336.04688029  .00000019  00000+0  32638-3 0  9991", "line2": "2 66514  66.0388 184.7629 0011528 268.8495  91.1202 12.85877319  1918"}}, "geometry": {"type": "Point", "coordinates": [-115.01014650026401, 63.03141910935149]}}]}